ONEWEB-0228             
1 48780U 21045P   23288.86658045 -.00000062  00000+0 -19793-3 0  9995
2 48780  87.8939  93.3666 0001723  84.7198 275.4129 13.15547965116099
